[Satellite]
VERSION=1.1
NAME=VERONIKA
NICKNAME=VERONIKA
TLE1=1 58261U 23174F   25178.77892181  .00146630  00000-0  94974-3 0  9991
TLE2=2 58261  97.4102 266.1174 0003317 270.3096  89.7789 15.75604662 91544
STATUS=0
